[{"OBJECT_NAME":"RESURS-P 4","OBJECT_ID":"2024-061A","EPOCH":"2026-03-10T00:09:50.865408","MEAN_MOTION":15.32930455,"ECCENTRICITY":0.00024315,"INCLINATION":97.2654,"RA_OF_ASC_NODE":18.6595,"ARG_OF_PERICENTER":59.481,"MEAN_ANOMALY":300.6672,"EPHEMERIS_TYPE":0,"CLASSIFICATION_TYPE":"U","NORAD_CAT_ID":59371,"ELEMENT_SET_NO":999,"REV_AT_EPOCH":10857,"BSTAR":0.00016169192,"MEAN_MOTION_DOT":5.066e-5,"MEAN_MOTION_DDOT":0},{"OBJECT_NAME":"STARLINK-34594","OBJECT_ID":"2025-167L","EPOCH":"2026-03-09T03:41:39.519168","MEAN_MOTION":15.30228068,"ECCENTRICITY":0.00018354,"INCLINATION":53.1625,"RA_OF_ASC_NODE":29.445,"ARG_OF_PERICENTER":84.837,"MEAN_ANOMALY":275.284,"EPHEMERIS_TYPE":0,"CLASSIFICATION_TYPE":"U","NORAD_CAT_ID":65088,"ELEMENT_SET_NO":999,"REV_AT_EPOCH":3339,"BSTAR":0.0014108964,"MEAN_MOTION_DOT":0.00041699,"MEAN_MOTION_DDOT":0}]
